{
    "links": {
        "self": "http://www.neowsapp.com/rest/v1/neo/54062092?api_key=iIulBulltgU6a56xZRHN4H3l9WmuAYTsLGpBGhQ2"
    },
    "id": "54062092",
    "neo_reference_id": "54062092",
    "name": "(2020 TC5)",
    "designation": "2020 TC5",
    "nasa_jpl_url": "http://ssd.jpl.nasa.gov/sbdb.cgi?sstr=54062092",
    "absolute_magnitude_h": 23.781,
    "estimated_diameter": {
        "kilometers": {
            "estimated_diameter_min": 0.0465966802,
            "estimated_diameter_max": 0.1041933445
        },
        "meters": {
            "estimated_diameter_min": 46.5966802329,
            "estimated_diameter_max": 104.1933445266
        },
        "miles": {
            "estimated_diameter_min": 0.0289538258,
            "estimated_diameter_max": 0.0647427227
        },
        "feet": {
            "estimated_diameter_min": 152.8762523754,
            "estimated_diameter_max": 341.8416924568
        }
    },
    "is_potentially_hazardous_asteroid": false,
    "close_approach_data": [
        {
            "close_approach_date": "2020-10-22",
            "close_approach_date_full": "2020-Oct-22 10:27",
            "epoch_date_close_approach": 1603362420000,
            "relative_velocity": {
                "kilometers_per_second": "9.7760934825",
                "kilometers_per_hour": "35193.9365369768",
                "miles_per_hour": "21868.1435109898"
            },
            "miss_distance": {
                "astronomical": "0.2084057052",
                "lunar": "81.0698193228",
                "kilometers": "31177049.593767924",
                "miles": "19372520.3018643912"
            },
            "orbiting_body": "Earth"
        },
        {
            "close_approach_date": "2031-10-17",
            "close_approach_date_full": "2031-Oct-17 07:46",
            "epoch_date_close_approach": 1949989560000,
            "relative_velocity": {
                "kilometers_per_second": "10.4540554448",
                "kilometers_per_hour": "37634.5996011515",
                "miles_per_hour": "23384.6766243933"
            },
            "miss_distance": {
                "astronomical": "0.4807828221",
                "lunar": "187.0245177969",
                "kilometers": "71924086.118748927",
                "miles": "44691554.7392601126"
            },
            "orbiting_body": "Earth"
        }
    ],
    "orbital_data": {
        "orbit_id": "4",
        "orbit_determination_date": "2020-11-10 05:19:21",
        "first_observation_date": "2020-10-13",
        "last_observation_date": "2020-11-10",
        "data_arc_in_days": 28,
        "observations_used": 24,
        "orbit_uncertainty": "7",
        "minimum_orbit_intersection": ".179053",
        "jupiter_tisserand_invariant": "3.327",
        "epoch_osculation": "2459000.5",
        "eccentricity": ".5085263034311563",
        "semi_major_axis": "2.364906794475795",
        "inclination": "13.87068400895562",
        "ascending_node_longitude": "217.7333623953709",
        "orbital_period": "1328.371258695841",
        "perihelion_distance": "1.162289484321794",
        "perihelion_argument": "159.9319430176615",
        "aphelion_distance": "3.567524104629797",
        "perihelion_time": "2459139.114410072018",
        "mean_anomaly": "322.4343064491488",
        "mean_motion": ".2710085735771174",
        "equinox": "J2000",
        "orbit_class": {
            "orbit_class_type": "AMO",
            "orbit_class_description": "Near-Earth asteroid orbits similar to that of 1221 Amor",
            "orbit_class_range": "1.017 AU < q (perihelion) < 1.3 AU"
        }
    },
    "is_sentry_object": false
}